#dP2019  9 21  0  0  0.00000000      96 __u+U IGS08 FIT  IAC
## 2071 518400.00000000   900.00000000 58747 0.0000000000000
+  114   C01C02C03C04C05C06C07C08C09C10C11C12C13C16C19C20C21
+        C22C23C24C25C26C27C28C29C30C32C33C34C35C36C37E01E02
+        E03E04E05E07E08E09E11E12E13E14E15E18E19E21E24E25E26
+        E27E30E31E33E36G01G02G03G04G05G06G07G08G09G10G11G12
+        G13G14G15G16G17G18G19G20G21G22G23G24G25G26G27G28G29
+        G30G31G32J01J02J03J07R01R02R03R05R07R08R09R11R12R13
+        R14R15R16R17R18R19R20R21R22R23R24R26  0  0  0  0  0
++        13 13 13 13 12  8  8  8  8  8  7  7  7  0  7  7  7
++         7  7  8  8  8  8  7  8  8  8  7  8  9  9  9  4  4
++         4  4  4  4  4  4  4  4  4  5  4  5  4  4  4  4  4
++         4  4  4  4  4  3  3  3  3  3  3  3  3  3  3  3  3
++         3  3  3  3  3  3  3  3  3  3  3  3  3  3  3  3  3
++         3  3  3  8  8  8 13  6  5  5  5  5  5  5  5  5  6
++         5  5  6  5  5  6  6  5  5  5  6  8  0  0  0  0  0
%c M  cc GPS ccc cccc cccc cccc cccc ccccc ccccc ccccc ccccc
%c cc cc ccc ccc cccc cccc cccc cccc ccccc ccccc ccccc ccccc
%f  1.2500000  1.025000000  0.00000000000  0.000000000000000
%f  0.0000000  0.000000000  0.00000000000  0.000000000000000
%i    0    0    0    0      0      0      0      0         0
%i    0    0    0    0      0      0      0      0         0
/* INFORMATION & ANALYSIS CENTER (IAC)            FINAL DATA
/* S/V CLOCKS ARE ALIGNED TO GNSS TIME                      
/* G:C1WC2W R:C1PC2P E:C1XC5X C:C2IC6I J:C1CC2S             
/* PCV:IGS14_2070 OL/AL:FES2004  NONE     YN ORB:CoN CLK:CoN
*  2019 09 21 23 15  0.00000000
PC01 -32315.572274  27048.401839    821.474687    -80.681697
PC02   4303.463738  41963.500374   -175.534725    856.048142
PC03 -14803.063771  39460.070278    559.338746    107.234846
PC04 -39574.704056  14484.434460    492.819678   -371.417362
PC05  21835.125976  36058.913849   -385.977258    -30.876888
PC06 -14931.513409  20648.414501 -33289.515316    400.530740
PC07 -22262.355563  34472.242444   8627.630854   -145.667284
PC08  -7090.866780  33091.525034  25424.676340     -6.725074
PC09   1745.191231  25597.352659 -33175.006504    -15.501771
PC10 -10870.531674  35416.297544  19915.448656   -198.401739
PC11   2800.753952  18976.286989  20346.908716     99.587559
PC12 -21125.223560   -770.396782  18233.124893   -248.688261
PC13   2325.053352  40128.647702  13230.996095   -883.692879
PC16      0.000000      0.000000      0.000000 999999.999999
PC19  -2502.112813 -16145.702284  22644.200721    199.325269
PC20  16483.873128 -17823.529735  13800.371169    -88.301676
PC21 -26210.226944   8879.959546   3512.370087    298.940710
PC22 -20313.749963  -5089.700937  18428.669957   -130.135576
PC23  13249.718417  12980.460812  20860.842162   -940.161775
PC24  -9760.639907  24413.796828  -9368.614418   -897.131832
PC25   3329.813856  26413.301093   8391.095906   -356.276262
PC26 -15879.538508   9037.544088 -21098.067088    395.598604
PC27  21417.998006    865.309908 -17875.741760    193.460072
PC28  23016.873904  15608.448165  -2411.360570    187.963210
PC29 -11958.016948 -20725.173955 -14362.050471    121.709190
PC30   6955.050427 -14480.172450 -22819.664119    196.298973
PC32  26155.896883  -9101.725093  -3470.287923   -926.670310
PC33   2551.613918  16162.526020 -22601.532214   -405.149055
PC34  -6764.627013  14656.772849  22757.735012    -95.087607
PC35 -23513.702343 -14873.288005   2329.914756   -364.203755
PC36  -2575.615710 -26544.739310  -8204.880661   -870.489392
PC37  16148.541989  -8043.273897  21317.808766   -509.208905
PE01  16744.621012 -24156.215399   3550.462183   -694.895559
PE02 -16697.726674  24195.256849  -3461.064706     80.616155
PE03 -18216.246739  13474.126097 -19038.520996   -213.456530
PE04  -3403.430054 -17023.274615  23978.324523   -370.198251
PE05 -29389.795633   1985.272375  -2882.361398   -446.577975
PE07  23317.545592  10587.399499 -14851.230336   -270.091067
PE08   3726.165640  16838.034293 -24057.207564   6288.582662
PE09 -23404.744185 -10308.281164  14892.507486   6308.918830
PE11 -19136.755985 -20717.848627   8988.932775   5582.649495
PE12  -7794.595368 -26646.569934 -10278.293489   6186.784699
PE13  19170.358187  20732.004089  -8887.136903    393.192290
PE14   -190.521291 -21490.882732 -24207.596409   -728.681440
PE15   8203.762918  26630.409618   9996.600166    894.512115
PE18   7311.303778  16804.526731  15372.531500   -823.009516
PE19  20047.585373 -12504.723376  17833.146090     -3.834780
PE21  20198.109625  -8737.621256  19806.663083   -556.142408
PE24 -11892.930050 -11826.396236 -24391.288984   5858.945170
PE25 -20174.112729   8651.450685 -19840.787477   1671.131146
PE26  18994.477204   2588.270262 -22558.220678   4080.318590
PE27  11814.752551  11891.498746  24406.684572    382.463730
PE30  -3543.825521  25448.294612  14698.154963   4527.871981
PE31   3498.531409 -25482.835758 -14643.465190   -468.712757
PE33   7595.211753 -16928.972673 -23059.812233   -470.349125
PE36 -18919.685362  -2654.110477  22608.503605    659.144197
PG01 -14335.529027   3594.007126  21859.235060   -136.649325
PG02  14353.834484  17903.665461 -12866.772588   -310.068287
PG03 -22150.502142  11885.322252   8378.620056    -13.514162
PG04 -19686.727175 -13372.476462 -12646.101808     41.910725
PG05  15612.251618   5782.888511 -20871.673282     -1.620438
PG06   5994.165132  25843.898474   -868.421424    -65.189892
PG07  -7783.623119  19302.262211 -15937.772332   -111.283869
PG08 -25796.947336  -4462.788834   5128.792633     -7.297861
PG09 -13675.601308  10699.821800 -20144.700039    -37.191337
PG10   6135.959330 -20304.638044  15911.308016    -63.274340
PG11 -17729.711418   1319.541663  19133.271594   -500.305208
PG12  22440.069198  -7442.453081  11723.761592    201.658373
PG13  22903.281341  13204.545887  -3016.933311    -43.054216
PG14 -13738.060189 -17315.474213  15187.818519    -60.091103
PG15  26111.735322   1834.730595   5306.791283   -285.279095
PG16 -13643.522028  -7876.270995 -21640.018879    -76.273306
PG17   4656.955796  16579.795503  20658.773452    130.003268
PG18 -16038.244199  -5756.857151  19895.498542     87.469926
PG19  11453.304195  17139.848689  16431.358125   -264.054736
PG20  12806.949476 -22151.013016   6663.844454    526.955173
PG21   2816.997573 -23065.434841 -12241.633553   -114.884681
PG22 -21266.027348   5993.949040  14892.483189   -757.123514
PG23 -23126.106110   2581.582671 -12811.114312   -165.602526
PG24  15752.790206  -1290.845448  21205.340620     -2.451567
PG25  19426.848804 -17897.774991   -784.175489    -13.052465
PG26  -5319.370743 -15501.676353 -20882.794616     44.383055
PG27 -22530.954929 -12501.208294  -7179.406754    -63.208295
PG28  -7353.723397  19592.073922  17025.194336    761.507054
PG29  16219.479226  -7482.705066 -19699.011864     91.527045
PG30   -739.577396  25576.424738  -6701.280311    -45.644215
PG31  -6658.280435 -25275.652044  -3055.119898      8.782942
PG32  -5338.200464 -16617.651122  20116.848202     65.266572
PJ01 -34741.031984  21335.651196  -6122.007112   -345.506763
PJ02 -23092.795902  31746.414202 -10892.164360     -4.406304
PJ03 -28203.534426  21806.086045  27560.491935     -2.360043
PJ07 -25332.107054  33708.205018    -45.375104     -0.126974
PR01 -23750.872409   8116.736563  -4504.829138     50.081367
PR02  -8627.844446  12013.352657 -20761.969622    389.228314
PR03  10439.317864   8224.682125 -21726.027972      1.887314
PR05  22915.234035  -8667.070629   7071.072581     36.149151
PR07 -11036.942893  -8025.881207  21590.534385    -26.967270
PR08 -23314.734189    248.220099  10406.789181     15.531282
PR09   5349.742644 -24599.147907  -4327.893118     91.844457
PR11 -11276.493138   -879.951034 -22838.100239    -80.158173
PR12 -12490.317419  16121.003256 -15298.466596     63.678363
PR13  -6392.579417  24623.519270   1790.726255    -28.703882
PR14   3051.901887  18371.621575  17440.273654     43.222384
PR15  10881.955556   1748.586373  23032.118977    104.075286
PR16  12289.918754 -16388.603615  15109.899994      3.960275
PR17  14954.887569  19944.303472   5525.930887    262.155092
PR18  18813.764495  12884.904428 -11373.488535      8.280454
PR19  12683.313004   -572.727535 -22129.304289    -54.978484
PR20  -1973.747341 -15787.551913 -19946.845661   -391.138223
PR21 -15288.849691 -19824.668839  -4797.701235    -73.903608
PR22 -18439.340978 -10995.274125  13866.775756   -176.532753
PR23  -8763.260196   5886.867716  23209.683768    255.399743
PR24   3901.207083  16804.455333  18759.257172   -184.978428
PR26    558.954431 -13713.305862 -21483.699810     -3.369113
EOF
